CCSDS_OEM_VERS = 1.0
CREATION_DATE  = 2017-05-11T11:58:48
ORIGINATOR     = GMAT USER

META_START
OBJECT_NAME          = MOPSSat_alt_35785_km_RAAN_270_088
OBJECT_ID            = SatId
CENTER_NAME          = Earth
REF_FRAME            = EME2000
TIME_SYSTEM          = UTC
START_TIME           = 2017-01-01T00:00:00.000
USEABLE_START_TIME   = 2017-01-01T00:00:00.000
USEABLE_STOP_TIME    = 2017-01-02T00:00:00.000
STOP_TIME            = 2017-01-02T00:00:00.000
INTERPOLATION        = Lagrange
INTERPOLATION_DEGREE = 7 
META_STOP


                                                                                   

2017-01-01T11:36:40.000   3.892551093461248e+03   4.240200745930616e+04   6.698580148954719e+01  -3.030992906165840e+00   2.809207791380578e-01  -5.283108599784037e-02
2017-01-01T11:36:50.000   3.862240161258870e+03   4.240480572039161e+04   6.645747353128817e+01  -3.031193161192791e+00   2.787314041816945e-01  -5.283449914765632e-02
2017-01-01T11:37:00.000   3.831927234605044e+03   4.240758208700236e+04   6.592911158277892e+01  -3.031391850771381e+00   2.765418893076600e-01  -5.283788499464029e-02
2017-01-01T11:37:10.000   3.801612329462062e+03   4.241033655771665e+04   6.540071592241259e+01  -3.031588974805668e+00   2.743522356355379e-01  -5.284124353717797e-02
2017-01-01T11:37:20.000   3.771295461178473e+03   4.241306913117978e+04   6.487228681788413e+01  -3.031784533204463e+00   2.721624442405702e-01  -5.284457477373622e-02
2017-01-01T11:37:30.000   3.740976645173143e+03   4.241577980604158e+04   6.434382453811362e+01  -3.031978525876849e+00   2.699725162030687e-01  -5.284787870278691e-02
2017-01-01T11:37:40.000   3.710655896780630e+03   4.241846858097101e+04   6.381532935055095e+01  -3.032170952733230e+00   2.677824525972451e-01  -5.285115532282463e-02
2017-01-01T11:37:50.000   3.680333231643588e+03   4.242113545461818e+04   6.328680152801579e+01  -3.032361813682615e+00   2.655922545195563e-01  -5.285440463232060e-02
2017-01-01T11:38:00.000   3.650008665421504e+03   4.242378042564342e+04   6.275824134362047e+01  -3.032551108634695e+00   2.634019230676642e-01  -5.285762662975784e-02
2017-01-01T11:38:10.000   3.619682213790574e+03   4.242640349271604e+04   6.222964907076813e+01  -3.032738837499752e+00   2.612114593404288e-01  -5.286082131362984e-02
2017-01-01T11:38:20.000   3.589353892735548e+03   4.242900465449205e+04   6.170102498823939e+01  -3.032925000187069e+00   2.590208644589868e-01  -5.286398868241340e-02
2017-01-01T11:38:30.000   3.559023718156725e+03   4.243158390964523e+04   6.117236937334220e+01  -3.033109596607158e+00   2.568301395383654e-01  -5.286712873460649e-02
2017-01-01T11:38:40.000   3.528691706027665e+03   4.243414125685440e+04   6.064368250466099e+01  -3.033292626670837e+00   2.546392856988745e-01  -5.287024146871269e-02
2017-01-01T11:38:50.000   3.498357871699243e+03   4.243667669486211e+04   6.011496464992625e+01  -3.033474090293434e+00   2.524483040158382e-01  -5.287332688331262e-02
2017-01-01T11:39:00.000   3.468022230597336e+03   4.243919022241551e+04   5.958621607817500e+01  -3.033653987390566e+00   2.502571955699890e-01  -5.287638497699206e-02
2017-01-01T11:39:10.000   3.437684798042725e+03   4.244168183828185e+04   5.905743705661203e+01  -3.033832317879232e+00   2.480659614344593e-01  -5.287941574836073e-02
2017-01-01T11:39:20.000   3.407345589735297e+03   4.244415154120624e+04   5.852862785904940e+01  -3.034009081674805e+00   2.458746027097552e-01  -5.288241919600086e-02
2017-01-01T11:39:30.000   3.377004621354501e+03   4.244659932994693e+04   5.799978875894218e+01  -3.034184278693540e+00   2.436831204948972e-01  -5.288539531851008e-02
2017-01-01T11:39:40.000   3.346661908648498e+03   4.244902520326720e+04   5.747092003094276e+01  -3.034357908852016e+00   2.414915158938606e-01  -5.288834411449182e-02
2017-01-01T11:39:50.000   3.316317467410042e+03   4.245142915993917e+04   5.694202195048010e+01  -3.034529972067385e+00   2.392997900138326e-01  -5.289126558255965e-02
2017-01-01T11:40:00.000   3.285971313446156e+03   4.245381119874472e+04   5.641309479323112e+01  -3.034700468257456e+00   2.371079439630212e-01  -5.289415972133865e-02
2017-01-01T11:40:10.000   3.255623462567169e+03   4.245617131847664e+04   5.588413883492996e+01  -3.034869397340763e+00   2.349159788498661e-01  -5.289702652946647e-02
2017-01-01T11:40:20.000   3.225273930478258e+03   4.245850951794761e+04   5.535515434947741e+01  -3.035036759237225e+00   2.327238957752027e-01  -5.289986600560474e-02
2017-01-01T11:40:30.000   3.194922732851714e+03   4.246082579598390e+04   5.482614161020044e+01  -3.035202553867675e+00   2.305316958374829e-01  -5.290267814843090e-02
2017-01-01T11:40:40.000   3.164569885326956e+03   4.246312015142544e+04   5.429710088985238e+01  -3.035366781153877e+00   2.283393801327754e-01  -5.290546295663857e-02
2017-01-01T11:40:50.000   3.134215403438089e+03   4.246539258313042e+04   5.376803245935056e+01  -3.035529441018859e+00   2.261469497495348e-01  -5.290822042894306e-02
2017-01-01T11:41:00.000   3.103859302722484e+03   4.246764308996779e+04   5.323893658966872e+01  -3.035690533386364e+00   2.239544057764435e-01  -5.291095056407225e-02
2017-01-01T11:41:10.000   3.073501598731752e+03   4.246987167081654e+04   5.270981355202803e+01  -3.035850058180810e+00   2.217617493032038e-01  -5.291365336076580e-02
2017-01-01T11:41:20.000   3.043142307061853e+03   4.247207832456226e+04   5.218066361842224e+01  -3.036008015327031e+00   2.195689814227135e-01  -5.291632881777070e-02
2017-01-01T11:41:30.000   3.012781443377477e+03   4.247426305009679e+04   5.165148706204247e+01  -3.036164404750268e+00   2.173761032328272e-01  -5.291897693384132e-02
2017-01-01T11:41:40.000   2.982419023322705e+03   4.247642584632419e+04   5.112228415572000e+01  -3.036319226376585e+00   2.151831158299023e-01  -5.292159770774619e-02
2017-01-01T11:41:50.000   2.952055062921218e+03   4.247856671213430e+04   5.059305517890172e+01  -3.036472480130975e+00   2.129900203377062e-01  -5.292419113823626e-02
2017-01-01T11:42:00.000   2.921689578091330e+03   4.248068564643514e+04   5.006380040919763e+01  -3.036624165939688e+00   2.107968178723882e-01  -5.292675722408410e-02
2017-01-01T11:42:10.000   2.891322584826319e+03   4.248278264814068e+04   4.953452012552347e+01  -3.036774283729350e+00   2.086035095555040e-01  -5.292929596406901e-02
2017-01-01T11:42:20.000   2.860954098495901e+03   4.248485771621925e+04   4.900521459592625e+01  -3.036922833430425e+00   2.064100964635646e-01  -5.293180735703567e-02
2017-01-01T11:42:30.000   2.830584134542957e+03   4.248691084964497e+04   4.847588408972756e+01  -3.037069814973756e+00   2.042165796783575e-01  -5.293429140183545e-02
2017-01-01T11:42:40.000   2.800212708325680e+03   4.248894204740933e+04   4.794652887477234e+01  -3.037215228291359e+00   2.020229602755464e-01  -5.293674809734004e-02
2017-01-01T11:42:50.000   2.769839835510709e+03   4.249095130849158e+04   4.741714922428108e+01  -3.037359073314345e+00   1.998292393530659e-01  -5.293917744240616e-02
2017-01-01T11:43:00.000   2.739465531781305e+03   4.249293863188164e+04   4.688774541176335e+01  -3.037501349974524e+00   1.976354180100439e-01  -5.294157943590271e-02
2017-01-01T11:43:10.000   2.709089812837256e+03   4.249490401657866e+04   4.635831771101631e+01  -3.037642058204330e+00   1.954414973467950e-01  -5.294395407670951e-02
2017-01-01T11:43:20.000   2.678712694687136e+03   4.249684746157517e+04   4.582886640121831e+01  -3.037781197935670e+00   1.932474784859290e-01  -5.294630136369804e-02
2017-01-01T11:43:30.000   2.648334193254717e+03   4.249876896587976e+04   4.529939176006907e+01  -3.037918769101545e+00   1.910533625439236e-01  -5.294862129575870e-02
2017-01-01T11:43:40.000   2.617954324533976e+03   4.250066852850773e+04   4.476989406649153e+01  -3.038054771635397e+00   1.888591506423209e-01  -5.295091387178959e-02
2017-01-01T11:43:50.000   2.587573103903543e+03   4.250254614852410e+04   4.424037358868279e+01  -3.038189205474172e+00   1.866648438582116e-01  -5.295317909074846e-02
2017-01-01T11:44:00.000   2.557190546812226e+03   4.250440182500042e+04   4.371083059606271e+01  -3.038322070555237e+00   1.844704432737491e-01  -5.295541695160055e-02
2017-01-01T11:44:10.000   2.526806668624046e+03   4.250623555702494e+04   4.318126535657267e+01  -3.038453366817105e+00   1.822759499649556e-01  -5.295762745333081e-02
2017-01-01T11:44:20.000   2.496421485011545e+03   4.250804734367580e+04   4.265167814353089e+01  -3.038583094197512e+00   1.800813650301305e-01  -5.295981059491157e-02
2017-01-01T11:44:30.000   2.466035011663820e+03   4.250983718404177e+04   4.212206923054350e+01  -3.038711252634916e+00   1.778866895687628e-01  -5.296196637532765e-02
2017-01-01T11:44:40.000   2.435647264286441e+03   4.251160507722112e+04   4.159243889150326e+01  -3.038837842068396e+00   1.756919246815247e-01  -5.296409479357485e-02
2017-01-01T11:44:50.000   2.405258258893808e+03   4.251335102230743e+04   4.106278740568476e+01  -3.038962862436649e+00   1.734970714913870e-01  -5.296619584864304e-02
2017-01-01T11:45:00.000   2.374868011415413e+03   4.251507501840979e+04   4.053311505088227e+01  -3.039086313679432e+00   1.713021311151824e-01  -5.296826953954044e-02
2017-01-01T11:45:10.000   2.344476537850923e+03   4.251677706464443e+04   4.000342210611258e+01  -3.039208195736966e+00   1.691071046748056e-01  -5.297031586528345e-02
2017-01-01T11:45:20.000   2.314083853584349e+03   4.251845716017330e+04   3.947370883966150e+01  -3.039328508552702e+00   1.669119932476795e-01  -5.297233482494325e-02
2017-01-01T11:45:30.000   2.283689974069843e+03   4.252011530416543e+04   3.894397552103690e+01  -3.039447252070531e+00   1.647167979162872e-01  -5.297432641759889e-02
2017-01-01T11:45:40.000   2.253294914676666e+03   4.252175149580584e+04   3.841422241826641e+01  -3.039564426235460e+00   1.625215197569744e-01  -5.297629064234863e-02
